{"type": "FeatureCollection", "features": [ {"type": "Feature", "properties": {"norad_id": 60989, "name": "SENTINEL-2C", "group": "resource", "lat": -7.464361895150942, "lon": -110.5717734947069, "alt_km": 792.9419078296305, "timestamp": "2025-12-24T05:51:19.263591+00:00", "meta": {"OBJECT_NAME": "SENTINEL-2C", "OBJECT_ID": "2024-157A", "EPOCH": "2025-12-22T16:03:33.313248", "MEAN_MOTION": 14.30821394, "ECCENTRICITY": 0.00011973, "INCLINATION": 98.5671, "RA_OF_ASC_NODE": 69.0082, "ARG_OF_PERICENTER": 95.1447, "MEAN_ANOMALY": 264.9872, "EPHEMERIS_TYPE": 0, "CLASSIFICATION_TYPE": "U", "NORAD_CAT_ID": 60989, "ELEMENT_SET_NO": 999, "REV_AT_EPOCH": 6774, "BSTAR": 7.0243627e-05, "MEAN_MOTION_DOT": 1.41e-06, "MEAN_MOTION_DDOT": 0}, "tle": {"line1": "1 60989U 24157A   25356.66913557  .00000141  00000+0  70244-4 0  9990", "line2": "2 60989  98.5671  69.0082 0001197  95.1447 264.9872 14.30821394 67740"}}, "geometry": {"type": "Point", "coordinates": [-110.5717734947069, -7.464361895150942]}}, {"type": "Feature", "properties": {"norad_id": 61735, "name": "IONOSFERA-M 1", "group": "resource", "lat": 60.003254872792844, "lon": 63.45928394381416, "alt_km": 810.4400228081786, "timestamp": "2025-12-24T05:51:19.263601+00:00", "meta": {"OBJECT_NAME": "IONOSFERA-M 1", "OBJECT_ID": "2024-199A", "EPOCH": "2025-12-23T22:32:51.616320", "MEAN_MOTION": 14.2271641, "ECCENTRICITY": 4.071e-05, "INCLINATION": 98.7404, "RA_OF_ASC_NODE": 227.7014, "ARG_OF_PERICENTER": 6.8259, "MEAN_ANOMALY": 353.2925, "EPHEMERIS_TYPE": 0, "CLASSIFICATION_TYPE": "U", "NORAD_CAT_ID": 61735, "ELEMENT_SET_NO": 999, "REV_AT_EPOCH": 10278, "BSTAR": 4.729858e-05, "MEAN_MOTION_DOT": 6.2e-07, "MEAN_MOTION_DDOT": 0}, "tle": {"line1": "1 61735U 24199A   25357.93948630  .00000062  00000+0  47299-4 0  9993", "line2": "2 61735  98.7404 227.7014 0000407   6.8259 353.2925 14.22716410102785"}}, "geometry": {"type": "Point", "coordinates": [63.45928394381416, 60.003254872792844]}}, {"type": "Feature", "properties": {"norad_id": 61736, "name": "IONOSFERA-M 2", "group": "resource", "lat": -57.497383321526044, "lon": -118.1131261212688, "alt_km": 824.4222389815186, "timestamp": "2025-12-24T05:51:19.263611+00:00", "meta": {"OBJECT_NAME": "IONOSFERA-M 2", "OBJECT_ID": "2024-199B", "EPOCH": "2025-12-23T23:22:43.681152", "MEAN_MOTION": 14.22718627, "ECCENTRICITY": 0.00018473, "INCLINATION": 98.7395, "RA_OF_ASC_NODE": 227.6481, "ARG_OF_PERICENTER": 96.1791, "MEAN_ANOMALY": 263.9597, "EPHEMERIS_TYPE": 0, "CLASSIFICATION_TYPE": "U", "NORAD_CAT_ID": 61736, "ELEMENT_SET_NO": 999, "REV_AT_EPOCH": 10591, "BSTAR": 4.6407258e-05, "MEAN_MOTION_DOT": 6e-07, "MEAN_MOTION_DDOT": 0}, "tle": {"line1": "1 61736U 24199B   25357.97411668  .00000060  00000+0  46407-4 0  9992", "line2": "2 61736  98.7395 227.6481 0001847  96.1791 263.9597 14.22718627105916"}}, "geometry": {"type": "Point", "coordinates": [-118.1131261212688, -57.497383321526044]}}, {"type": "Feature", "properties": {"norad_id": 63772, "name": "BIOMASS", "group": "resource", "lat": -6.857899515345766, "lon": 2.108065413357608, "alt_km": 672.9784245329984, "timestamp": "2025-12-24T05:51:19.263621+00:00", "meta": {"OBJECT_NAME": "BIOMASS", "OBJECT_ID": "2025-090A", "EPOCH": "2025-12-23T19:11:19.220064", "MEAN_MOTION": 14.67540552, "ECCENTRICITY": 0.00010921, "INCLINATION": 98.07, "RA_OF_ASC_NODE": 182.648, "ARG_OF_PERICENTER": 82.9216, "MEAN_ANOMALY": 277.2113, "EPHEMERIS_TYPE": 0, "CLASSIFICATION_TYPE": "U", "NORAD_CAT_ID": 63772, "ELEMENT_SET_NO": 999, "REV_AT_EPOCH": 3496, "BSTAR": 0.00020853311, "MEAN_MOTION_DOT": 1.135e-05, "MEAN_MOTION_DDOT": 0}, "tle": {"line1": "1 63772U 25090A   25357.79952801  .00001135  00000+0  20853-3 0  9994", "line2": "2 63772  98.0700 182.6480 0001092  82.9216 277.2113 14.67540552 34964"}}, "geometry": {"type": "Point", "coordinates": [2.108065413357608, -6.857899515345766]}}, {"type": "Feature", "properties": {"norad_id": 64694, "name": "GOSAT-GW (IBUKI GW)", "group": "resource", "lat": 36.84208598456014, "lon": -72.5332038468657, "alt_km": 665.5380681124716, "timestamp": "2025-12-24T05:51:19.263631+00:00", "meta": {"OBJECT_NAME": "GOSAT-GW (IBUKI GW)", "OBJECT_ID": "2025-141A", "EPOCH": "2025-12-23T23:08:26.656224", "MEAN_MOTION": 14.67566873, "ECCENTRICITY": 0.00014277, "INCLINATION": 98.0438, "RA_OF_ASC_NODE": 293.2742, "ARG_OF_PERICENTER": 84.2072, "MEAN_ANOMALY": 275.9296, "EPHEMERIS_TYPE": 0, "CLASSIFICATION_TYPE": "U", "NORAD_CAT_ID": 64694, "ELEMENT_SET_NO": 999, "REV_AT_EPOCH": 2614, "BSTAR": 0.00018175254, "MEAN_MOTION_DOT": 9.84e-06, "MEAN_MOTION_DDOT": 0}, "tle": {"line1": "1 64694U 25141A   25357.96419741  .00000984  00000+0  18175-3 0  9990", "line2": "2 64694  98.0438 293.2742 0001427  84.2072 275.9296 14.67566873 26145"}}, "geometry": {"type": "Point", "coordinates": [-72.5332038468657, 36.84208598456014]}}, {"type": "Feature", "properties": {"norad_id": 64876, "name": "IONOSFERA-M 3", "group": "resource", "lat": -65.72141971798435, "lon": -20.66033334662543, "alt_km": 828.0973078671495, "timestamp": "2025-12-24T05:51:19.263641+00:00", "meta": {"OBJECT_NAME": "IONOSFERA-M 3", "OBJECT_ID": "2025-155A", "EPOCH": "2025-12-23T21:43:26.769216", "MEAN_MOTION": 14.21443648, "ECCENTRICITY": 0.00018852, "INCLINATION": 98.5799, "RA_OF_ASC_NODE": 319.456, "ARG_OF_PERICENTER": 41.7597, "MEAN_ANOMALY": 318.3724, "EPHEMERIS_TYPE": 0, "CLASSIFICATION_TYPE": "U", "NORAD_CAT_ID": 64876, "ELEMENT_SET_NO": 999, "REV_AT_EPOCH": 2150, "BSTAR": 5.5459666e-05, "MEAN_MOTION_DOT": 7.9e-07, "MEAN_MOTION_DDOT": 0}, "tle": {"line1": "1 64876U 25155A   25357.90517094  .00000079  00000+0  55460-4 0  9995", "line2": "2 64876  98.5799 319.4560 0001885  41.7597 318.3724 14.21443648 21506"}}, "geometry": {"type": "Point", "coordinates": [-20.66033334662543, -65.72141971798435]}}, {"type": "Feature", "properties": {"norad_id": 64877, "name": "IONOSFERA-M 4", "group": "resource", "lat": 64.9460715220628, "lon": 158.5472496691705, "alt_km": 813.6599579259082, "timestamp": "2025-12-24T05:51:19.263652+00:00", "meta": {"OBJECT_NAME": "IONOSFERA-M 4", "OBJECT_ID": "2025-155B", "EPOCH": "2025-12-23T22:33:55.746720", "MEAN_MOTION": 14.21444805, "ECCENTRICITY": 0.00013149, "INCLINATION": 98.5799, "RA_OF_ASC_NODE": 319.4095, "ARG_OF_PERICENTER": 52.671, "MEAN_ANOMALY": 307.4587, "EPHEMERIS_TYPE": 0, "CLASSIFICATION_TYPE": "U", "NORAD_CAT_ID": 64877, "ELEMENT_SET_NO": 999, "REV_AT_EPOCH": 2150, "BSTAR": 5.4840067e-05, "MEAN_MOTION_DOT": 7.7e-07, "MEAN_MOTION_DDOT": 0}, "tle": {"line1": "1 64877U 25155B   25357.94022855  .00000077  00000+0  54840-4 0  9995", "line2": "2 64877  98.5799 319.4095 0001314  52.6710 307.4587 14.21444805 21507"}}, "geometry": {"type": "Point", "coordinates": [158.5472496691705, 64.9460715220628]}}, {"type": "Feature", "properties": {"norad_id": 64899, "name": "MICROCARB", "group": "resource", "lat": -21.382162780139222, "lon": -109.75265746741678, "alt_km": 660.0332940822527, "timestamp": "2025-12-24T05:51:19.263662+00:00", "meta": {"OBJECT_NAME": "MICROCARB", "OBJECT_ID": "2025-156A", "EPOCH": "2025-12-23T19:09:23.800032", "MEAN_MOTION": 14.72074082, "ECCENTRICITY": 0.00175961, "INCLINATION": 98.0012, "RA_OF_ASC_NODE": 72.9658, "ARG_OF_PERICENTER": 111.6038, "MEAN_ANOMALY": 248.7046, "EPHEMERIS_TYPE": 0, "CLASSIFICATION_TYPE": "U", "NORAD_CAT_ID": 64899, "ELEMENT_SET_NO": 999, "REV_AT_EPOCH": 2216, "BSTAR": 0.00011305664, "MEAN_MOTION_DOT": 6.63e-06, "MEAN_MOTION_DDOT": 0}, "tle": {"line1": "1 64899U 25156A   25357.79819213  .00000663  00000+0  11306-3 0  9995", "line2": "2 64899  98.0012  72.9658 0017596 111.6038 248.7046 14.72074082 22160"}}, "geometry": {"type": "Point", "coordinates": [-109.75265746741678, -21.382162780139222]}}, {"type": "Feature", "properties": {"norad_id": 64900, "name": "CO3D 3", "group": "resource", "lat": 71.36840773157628, "lon": 51.661515765631215, "alt_km": 497.4203710062102, "timestamp": "2025-12-24T05:51:19.263672+00:00", "meta": {"OBJECT_NAME": "CO3D 3", "OBJECT_ID": "2025-156B", "EPOCH": "2025-12-23T23:13:01.572384", "MEAN_MOTION": 15.20209466, "ECCENTRICITY": 0.00013203, "INCLINATION": 97.4338, "RA_OF_ASC_NODE": 74.1736, "ARG_OF_PERICENTER": 74.5464, "MEAN_ANOMALY": 285.5916, "EPHEMERIS_TYPE": 0, "CLASSIFICATION_TYPE": "U", "NORAD_CAT_ID": 64900, "ELEMENT_SET_NO": 999, "REV_AT_EPOCH": 2291, "BSTAR": 0.0003079994, "MEAN_MOTION_DOT": 6.607e-05, "MEAN_MOTION_DDOT": 0}, "tle": {"line1": "1 64900U 25156B   25357.96737931  .00006607  00000+0  30800-3 0  9997", "line2": "2 64900  97.4338  74.1736 0001320  74.5464 285.5916 15.20209466 22914"}}, "geometry": {"type": "Point", "coordinates": [51.661515765631215, 71.36840773157628]}}, {"type": "Feature", "properties": {"norad_id": 64901, "name": "CO3D 4", "group": "resource", "lat": 70.58227532084769, "lon": 52.70573668766959, "alt_km": 498.32992785986426, "timestamp": "2025-12-24T05:51:19.263682+00:00", "meta": {"OBJECT_NAME": "CO3D 4", "OBJECT_ID": "2025-156C", "EPOCH": "2025-12-23T20:03:40.563360", "MEAN_MOTION": 15.2020851, "ECCENTRICITY": 0.00013972, "INCLINATION": 97.4338, "RA_OF_ASC_NODE": 74.044, "ARG_OF_PERICENTER": 159.7182, "MEAN_ANOMALY": 200.4109, "EPHEMERIS_TYPE": 0, "CLASSIFICATION_TYPE": "U", "NORAD_CAT_ID": 64901, "ELEMENT_SET_NO": 999, "REV_AT_EPOCH": 2289, "BSTAR": 0.00021003643, "MEAN_MOTION_DOT": 4.483e-05, "MEAN_MOTION_DDOT": 0}, "tle": {"line1": "1 64901U 25156C   25357.83588615  .00004483  00000+0  21004-3 0  9993", "line2": "2 64901  97.4338  74.0440 0001397 159.7182 200.4109 15.20208510 22899"}}, "geometry": {"type": "Point", "coordinates": [52.70573668766959, 70.58227532084769]}}]}